IRIDIUM 57 [-]          
1 25273U 98019B   23345.88989577  .00000303  00000+0  99379-4 0  9990
2 25273  86.3971  16.9642 0002202  93.0855 267.0593 14.35012440345412
IRIDIUM 63 [-]          
1 25286U 98021B   23345.91315976  .00000340  00000+0  11124-3 0  9999
2 25286  86.3967 313.8911 0002054  89.3509 270.7923 14.35521882344443
IRIDIUM 69 [-]          
1 25319U 98026A   23345.90517796  .00000326  00000+0  97837-4 0  9994
2 25319  86.3973 328.8331 0004186  68.7497 291.4148 14.39702301343421
IRIDIUM 71 [-]          
1 25320U 98026B   23346.01679604  .00000367  00000+0  11019-3 0  9998
2 25320  86.3964 323.5970 0004332 100.3719 259.7969 14.40026815344203
IRIDIUM 73 [-]          
1 25344U 98032C   23345.88301951  .00000471  00000+0  11599-3 0  9991
2 25344  86.4410 281.3637 0002952  81.8914 278.2626 14.50183061350338
IRIDIUM 82 [-]          
1 25467U 98051A   23346.13297072  .00006049  00000+0  34216-3 0  9993
2 25467  86.3937  14.3747 0142540 187.1414 172.7795 15.04491791340163
IRIDIUM 2 [-]           
1 25527U 98066A   23345.71432414  .00030029  00000+0  57975-3 0  9992
2 25527  85.5188  62.9093 0003195 345.6293  14.4872 15.47657583378495
